NORAD_CAT_ID,OBJECT_NAME,OBJECT_TYPE,EPOCH,MEAN_MOTION,ECCENTRICITY,INCLINATION,RA_OF_ASC_NODE,ARG_OF_PERICENTER,MEAN_ANOMALY,BSTAR,MEAN_MOTION_DOT,MEAN_MOTION_DDOT,TLE_LINE0,TLE_LINE1,TLE_LINE2,SEMIMAJOR_AXIS,PERIOD,APOGEE,PERIGEE,DECAYED
50179.0,STARLINK-3283,PAYLOAD,2022-02-01 14:00:01,15.73233948,0.000219,53.217,142.6175,23.0284,244.0389,-0.00062453,-0.00087501,0.0,0 STARLINK-3283,1 50179U 21125Z   22032.58335648 -.00087501  00000-0 -62453-3 0  9990,2 50179  53.2170 142.6175 0002190  23.0284 244.0389 15.73233948  3670,6727.7980000000025,91.531,351.13699999999994,348.19,0.0
50179.0,STARLINK-3283,PAYLOAD,2022-02-01 22:00:00,15.73167486,0.0002209,53.217,140.9676,21.0339,334.9033,-5.4725e-05,-8.284e-05,0.0,0 STARLINK-3283,1 50179U 21125Z   22032.91667824 -.00008284  00000-0 -54725-4 0  9996,2 50179  53.2170 140.9676 0002209  21.0339 334.9033 15.73167486  9974,6727.988,91.535,351.339,348.367,0.0
50179.0,STARLINK-3283,PAYLOAD,2022-02-02 14:00:01,15.73130064,0.0002511,53.2176,137.6694,27.5877,146.0988,0.00023789,0.00032799,0.0,0 STARLINK-3283,1 50179U 21125Z   22033.58334491  .00032799  00000-0  23789-3 0  9992,2 50179  53.2176 137.6694 0002511  27.5877 146.0988 15.73130064  3693,6728.095,91.537,351.649,348.27,0.0
50179.0,STARLINK-3283,PAYLOAD,2022-02-02 22:00:00,15.73177475,0.0002491,53.2172,136.0195,27.035,235.5045,7.9056e-06,4.87e-06,0.0,0 STARLINK-3283,1 50179U 21125Z   22033.91667824  .00000487  00000-0  79056-5 0  9997,2 50179  53.2172 136.0195 0002491  27.0350 235.5045 15.73177475  3703,6727.959,91.534,351.5,348.148,0.0
50179.0,STARLINK-3283,PAYLOAD,2022-02-03 06:00:00,15.73183457,0.0002381,53.2173,134.3689,30.9661,320.4793,0.00052072,0.0007304999999999,0.0,0 STARLINK-3283,1 50179U 21125Z   22034.25001157  .00073050  00000-0  52072-3 0  9999,2 50179  53.2173 134.3689 0002381  30.9661 320.4793 15.73183457 10180,6727.941999999999,91.534,351.409,348.205,0.0
50179.0,STARLINK-3283,PAYLOAD,2022-02-03 14:00:01,15.73220994,0.0002625,53.217,132.7216,28.2785,52.1023,0.00025166,0.0003488,0.0,0 STARLINK-3283,1 50179U 21125Z   22034.58334491  .00034880  00000-0  25166-3 0  9997,2 50179  53.2170 132.7216 0002625  28.2785  52.1023 15.73220994  3717,6727.835,91.532,351.466,347.934,0.0
50179.0,STARLINK-3283,PAYLOAD,2022-02-03 22:00:01,15.73324533,0.0002562,53.2169,131.0711,26.4851,142.9458,-0.00055448,-0.00078149,0.0,0 STARLINK-3283,1 50179U 21125Z   22034.91668981 -.00078149  00000-0 -55448-3 0  9992,2 50179  53.2169 131.0711 0002562  26.4851 142.9458 15.73324533  3692,6727.54,91.526,351.129,347.682,0.0
50179.0,STARLINK-3283,PAYLOAD,2022-02-04 06:00:00,15.73257776,0.0002366,53.2171,129.42,25.1344,233.2913,0.00043089,0.00060443,0.0,0 STARLINK-3283,1 50179U 21125Z   22035.25001157  .00060443  00000-0  43089-3 0  9990,2 50179  53.2171 129.4200 0002366  25.1344 233.2913 15.73257776 10348,6727.73,91.53,351.18699999999984,348.004,0.0
50179.0,STARLINK-3283,PAYLOAD,2022-02-04 14:00:01,15.73288501,0.0002603,53.2172,127.7724,19.9418,327.5625,-0.00074718,-0.00104606,0.0,0 STARLINK-3283,1 50179U 21125Z   22035.58335648 -.00104606  00000-0 -74718-3 0  9996,2 50179  53.2172 127.7724 0002603  19.9418 327.5625 15.73288501 10390,6727.643,91.528,351.259,347.75699999999995,0.0
50179.0,STARLINK-3283,PAYLOAD,2022-02-04 22:00:00,15.73253198,0.0002585,53.2168,126.1218,17.1009,59.3286,-0.0012622,-0.00174575,0.0,0 STARLINK-3283,1 50179U 21125Z   22035.91667824 -.00174575  00000-0 -12622-2 0  9994,2 50179  53.2168 126.1218 0002585  17.1009  59.3286 15.73253198  3693,6727.744000000002,91.53,351.348,347.869,0.0
50179.0,STARLINK-3283,PAYLOAD,2022-02-05 06:00:00,15.7318881,0.0002449,53.2168,124.4716,22.2842,143.0507,-0.00016173,-0.00023249,0.0,0 STARLINK-3283,1 50179U 21125Z   22036.25001157 -.00023249  00000-0 -16173-3 0  9990,2 50179  53.2168 124.4716 0002449  22.2842 143.0507 15.73188810 10501,6727.927,91.534,351.44,348.144,0.0
50179.0,STARLINK-3283,PAYLOAD,2022-02-05 14:00:01,15.73133376,0.000282,53.2165,122.8242,22.0508,232.1977,0.0004723,0.00066005,0.0,0 STARLINK-3283,1 50179U 21125Z   22036.58334491  .00066005  00000-0  47230-3 0  9999,2 50179  53.2165 122.8242 0002820  22.0508 232.1977 15.73133376  3683,6728.085,91.537,351.847,348.05300000000005,0.0
50179.0,STARLINK-3283,PAYLOAD,2022-02-06 06:00:00,15.732044,0.0002468,53.2168,119.5088,19.236,52.7607,-0.0026595,-0.00358564,0.0,0 STARLINK-3283,1 50179U 21125Z   22037.25001157 -.00358564  00000-0 -26595-2 0  9990,2 50179  53.2168 119.5088 0002468  19.2360  52.7607 15.73204400 10657,6727.8830000000025,91.533,351.408,348.087,0.0
50179.0,STARLINK-3283,PAYLOAD,2022-02-06 14:00:01,15.73122634,0.0002846,53.2175,117.8543,16.1619,144.6439,-0.0048603,-0.00632015,0.0,0 STARLINK-3283,1 50179U 21125Z   22037.58335648 -.00632015  00000-0 -48603-2 0  9991,2 50179  53.2175 117.8543 0002846  16.1619 144.6439 15.73122634  3682,6728.116,91.538,351.896,348.066,0.0
50179.0,STARLINK-3283,PAYLOAD,2022-02-06 20:00:01,15.72792193,0.0002566999999999,53.2173,116.6148,15.9961,121.2207,-0.0051907,-0.00662928,0.0,0 STARLINK-3283,1 50179U 21125Z   22037.83334491 -.00662928  00000-0 -51907-2 0  9991,2 50179  53.2173 116.6148 0002567  15.9961 121.2207 15.72792193 10746,6729.058000000001,91.557,352.65,349.196,0.0
50179.0,STARLINK-3283,PAYLOAD,2022-02-06 22:00:00,15.72677696,0.0002419,53.2175,116.2021,18.7737,230.5332,-0.0052485,-0.00666685,0.0,0 STARLINK-3283,1 50179U 21125Z   22037.91667824 -.00666685  00000-0 -52485-2 0  9995,2 50179  53.2175 116.2021 0002419  18.7737 230.5332 15.72677696  3680,6729.385,91.564,352.87800000000016,349.622,0.0
50179.0,STARLINK-3283,PAYLOAD,2022-02-07 14:00:01,15.71742896,0.0002609,53.2175,112.91,7.3579,57.4117,-0.0054321,-0.00663301,0.0,0 STARLINK-3283,1 50179U 21125Z   22038.58334491 -.00663301  00000-0 -54321-2 0  9993,2 50179  53.2175 112.9100 0002609   7.3579  57.4117 15.71742896  3692,6732.053000000001,91.618,355.6740000000001,352.161,0.0
50179.0,STARLINK-3283,PAYLOAD,2022-02-07 22:00:00,15.71280813,0.0002586,53.2174,111.2632,344.0875,167.5724,-0.0056147,-0.006716,0.0,0 STARLINK-3283,1 50179U 21125Z   22038.91667824 -.00671600  00000-0 -56147-2 0  9998,2 50179  53.2174 111.2632 0002586 344.0875 167.5724 15.71280813 10924,6733.371999999999,91.645,356.97900000000016,353.496,0.0
50179.0,STARLINK-3283,PAYLOAD,2022-02-08 06:00:00,15.70695705,0.0005737,53.217,109.622,279.1719,318.8804,-0.0042923,-0.0051131,0.0,0 STARLINK-3283,1 50179U 21125Z   22039.25001157 -.00511310  00000-0 -42923-2 0  9995,2 50179  53.2170 109.6220 0005737 279.1719 318.8804 15.70695705 10974,6735.045,91.679,360.773,353.046,0.0
50179.0,STARLINK-3283,PAYLOAD,2022-02-08 14:00:01,15.70336014,0.000434,53.2176,107.9779,294.8658,28.8964,-0.0056393,-0.00650329,0.0,0 STARLINK-3283,1 50179U 21125Z   22039.58334491 -.00650329  00000-0 -56393-2 0  9991,2 50179  53.2176 107.9779 0004340 294.8658  28.8964 15.70336014 11022,6736.073,91.7,360.861,355.014,0.0
50179.0,STARLINK-3283,PAYLOAD,2022-02-08 22:00:01,15.69783604,0.0002407,53.2175,106.3372,293.4753,115.6078,-0.0047193,-0.00538558,0.0,0 STARLINK-3283,1 50179U 21125Z   22039.91668981 -.00538558  00000-0 -47193-2 0  9999,2 50179  53.2175 106.3372 0002407 293.4753 115.6078 15.69783604  3667,6737.653,91.732,361.14,357.896,0.0
50179.0,STARLINK-3283,PAYLOAD,2022-02-09 13:04:32,15.69424548,0.0001824,53.2167,103.2607,284.6539,75.4277,-0.0025822,-0.00298887,0.0,0 STARLINK-3283,1 50179U 21125Z   22040.54482300 -.00298887  00000-0 -25822-2 0  9992,2 50179  53.2167 103.2607 0001824 284.6539  75.4277 15.69424548 11663,6738.681,91.753,361.775,359.31699999999995,0.0
50179.0,STARLINK-3283,PAYLOAD,2022-02-09 14:00:01,15.68939334,0.0001272,53.2175,103.056,51.8007,165.9051,-0.0060376,-0.00655625,0.0,0 STARLINK-3283,1 50179U 21125Z   22040.58334491 -.00655625  00000-0 -60376-2 0  9993,2 50179  53.2175 103.0560 0001272  51.8007 165.9051 15.68939334 11184,6740.07,91.782,362.792,361.078,0.0
50179.0,STARLINK-3283,PAYLOAD,2022-02-10 14:00:01,15.67538372,0.0001136,53.2174,98.1444,66.515,40.1553,-0.0063738,-0.00653434,0.0,0 STARLINK-3283,1 50179U 21125Z   22041.58335648 -.00653434  00000-0 -63738-2 0  9990,2 50179  53.2174  98.1444 0001136  66.5150  40.1553 15.67538372 11333,6744.085,91.864,366.716,365.184,0.0
50179.0,STARLINK-3283,PAYLOAD,2022-02-10 22:00:00,15.67075356,0.0001262,53.2176,96.5074,62.3651,126.0847,-0.0065539,-0.00658878,0.0,0 STARLINK-3283,1 50179U 21125Z   22041.91667824 -.00658878  00000-0 -65539-2 0  9999,2 50179  53.2176  96.5074 0001262  62.3651 126.0847 15.67075356  3672,6745.4140000000025,91.891,368.13,366.427,0.0
50179.0,STARLINK-3283,PAYLOAD,2022-02-11 12:30:34,15.66644042,0.0002148,53.217,93.5505,71.3587,288.7663,-0.0030112,-0.00310526,0.0,0 STARLINK-3283,1 50179U 21125Z   22042.52123151 -.00310526  00000-0 -30112-2 0  9991,2 50179  53.2170  93.5505 0002148  71.3587 288.7663 15.66644042 11487,6746.651999999999,91.916,369.966,367.067,0.0
50179.0,STARLINK-3283,PAYLOAD,2022-02-11 20:10:04,15.66167548,0.0001382,53.2173,91.9885,78.9282,281.189,-0.0032407,-0.00327079,0.0,0 STARLINK-3283,1 50179U 21125Z   22042.84033560 -.00327079  00000-0 -32407-2 0  9990,2 50179  53.2173  91.9885 0001382  78.9282 281.1890 15.66167548 12028,6748.02,91.944,370.818,368.952,0.0
50179.0,STARLINK-3283,PAYLOAD,2022-02-11 22:00:01,15.65674528,0.0001167,53.2175,91.6095,55.1167,15.5698,-0.0069157,-0.00656975,0.0,0 STARLINK-3283,1 50179U 21125Z   22042.91668981 -.00656975  00000-0 -69157-2 0  9991,2 50179  53.2175  91.6095 0001167  55.1167  15.5698 15.65674528 11541,6749.437,91.973,372.089,370.514,0.0
50179.0,STARLINK-3283,PAYLOAD,2022-02-12 14:00:01,15.64738779,0.0001240999999999,53.2173,88.3518,68.4279,160.8371,-0.0071225,-0.00652068,0.0,0 STARLINK-3283,1 50179U 21125Z   22043.58334491 -.00652068  00000-0 -71225-2 0  9999,2 50179  53.2173  88.3518 0001241  68.4279 160.8371 15.64738779  3705,6752.127,92.028,374.83,373.154,0.0
